NORAD_CAT_ID,OBJECT_NAME,OBJECT_TYPE,EPOCH,MEAN_MOTION,ECCENTRICITY,INCLINATION,RA_OF_ASC_NODE,ARG_OF_PERICENTER,MEAN_ANOMALY,BSTAR,MEAN_MOTION_DOT,MEAN_MOTION_DDOT,TLE_LINE0,TLE_LINE1,TLE_LINE2,SEMIMAJOR_AXIS,PERIOD,APOGEE,PERIGEE,DECAYED
53991.0,STARLINK-5118,PAYLOAD,2022-10-11 18:00:00,15.81272991,0.0001701,53.2174,63.0378,27.5493,25.5078,-0.0067069,-0.0119972,0.0,0 STARLINK-5118,1 53991U 22125AD  22284.75001157 -.01199720  00000-0 -67069-2 0  9994,2 53991  53.2174  63.0378 0001701  27.5493  25.5078 15.81272991  1303,6704.977,91.066,327.982,325.701,0.0
53991.0,STARLINK-5118,PAYLOAD,2022-10-12 04:00:00,15.86740493,0.0004285,53.2246,60.8976,280.2823,12.8632,0.00075651,0.00201201,0.0,0 STARLINK-5118,1 53991U 22125AD  22285.16667824  .00201201  00000-0  75651-3 0  9991,2 53991  53.2246  60.8976 0004285 280.2823  12.8632 15.86740493  1360,6689.565,90.752,314.297,308.564,0.0
53991.0,STARLINK-5118,PAYLOAD,2022-10-12 14:00:01,15.86917872,0.0004338,53.2242,58.7954,285.0887,229.6793,0.00058905,0.00157078,0.0,0 STARLINK-5118,1 53991U 22125AD  22285.58334491  .00157078  00000-0  58905-3 0  9993,2 53991  53.2242  58.7954 0004338 285.0887 229.6793 15.86917872  1307,6689.066999999999,90.742,313.834,308.03,0.0
53991.0,STARLINK-5118,PAYLOAD,2022-10-12 22:00:00,15.87031478,0.0004497,53.2238,57.113,289.0657,331.1714,0.0006917999999999,0.00186271,0.0,0 STARLINK-5118,1 53991U 22125AD  22285.91667824  .00186271  00000-0  69180-3 0  9993,2 53991  53.2238  57.1130 0004497 289.0657 331.1714 15.87031478  1308,6688.748000000001,90.735,313.621,307.605,0.0
53991.0,STARLINK-5118,PAYLOAD,2022-10-13 04:00:00,15.87106107,0.000448,53.2242,55.8488,288.3789,321.0677,0.00079575,0.00215885,0.0,0 STARLINK-5118,1 53991U 22125AD  22286.16667824  .00215885  00000-0  79575-3 0  9994,2 53991  53.2242  55.8488 0004480 288.3789 321.0677 15.87106107  1526,6688.538000000001,90.731,313.399,307.407,0.0
53991.0,STARLINK-5118,PAYLOAD,2022-10-13 14:00:01,15.86577209,0.0005691,53.2174,53.7597,274.6798,195.2295,-0.0022083,-0.00539937,0.0,0 STARLINK-5118,1 53991U 22125AD  22286.58334491 -.00539937  00000-0 -22083-2 0  9991,2 53991  53.2174  53.7597 0005691 274.6798 195.2295 15.86577209  1308,6690.024,90.761,315.697,308.082,0.0
53991.0,STARLINK-5118,PAYLOAD,2022-10-13 16:00:00,15.86490828,0.0006167,53.2175,53.3395,273.7174,312.4259,-0.0022946999999999,-0.00557754,0.0,0 STARLINK-5118,1 53991U 22125AD  22286.66667824 -.00557754  00000-0 -22947-2 0  9995,2 53991  53.2175  53.3395 0006167 273.7174 312.4259 15.86490828  1605,6690.267,90.766,316.258,308.006,0.0
53991.0,STARLINK-5118,PAYLOAD,2022-10-13 22:00:00,15.86206055,0.0007275,53.2171,52.0777,271.4493,303.2324,-0.0023242,-0.00557566,0.0,0 STARLINK-5118,1 53991U 22125AD  22286.91667824 -.00557566  00000-0 -23242-2 0  9993,2 53991  53.2171  52.0777 0007275 271.4493 303.2324 15.86206055  1306,6691.068,90.783,317.801,308.065,0.0
53991.0,STARLINK-5118,PAYLOAD,2022-10-14 14:00:01,15.8544407,0.0007984,53.2173,48.7166,269.9795,152.8835,-0.0023899,-0.00552971,0.0,0 STARLINK-5118,1 53991U 22125AD  22287.58334491 -.00552971  00000-0 -23899-2 0  9991,2 53991  53.2173  48.7166 0007984 269.9795 152.8835 15.85444070  1301,6693.212,90.826,320.42,309.733,0.0
53991.0,STARLINK-5118,PAYLOAD,2022-10-14 20:00:01,15.85160015,0.0007444,53.2172,47.4576,270.0163,140.44299999999998,-0.0024254,-0.00553217,0.0,0 STARLINK-5118,1 53991U 22125AD  22287.83334491 -.00553217  00000-0 -24254-2 0  9999,2 53991  53.2172  47.4576 0007444 270.0163 140.4430 15.85160015  1784,6694.011,90.843,320.8590000000001,310.893,0.0
53991.0,STARLINK-5118,PAYLOAD,2022-10-15 10:00:00,15.84490912,0.0001636,53.2181,44.5185,34.7703,105.7539,-0.0024729,-0.00544774,0.0,0 STARLINK-5118,1 53991U 22125AD  22288.41667824 -.00544774  00000-0 -24729-2 0  9998,2 53991  53.2181  44.5185 0001636  34.7703 105.7539 15.84490912  1886,6695.896,90.881,318.856,316.665,0.0
53991.0,STARLINK-5118,PAYLOAD,2022-10-15 14:00:01,15.84291547,0.0001286999999999,53.2186,43.6807,47.1149,324.6031,-0.0024326,-0.00531531,0.0,0 STARLINK-5118,1 53991U 22125AD  22288.58334491 -.00531531  00000-0 -24326-2 0  9997,2 53991  53.2186  43.6807 0001287  47.1149 324.6031 15.84291547  1305,6696.456999999999,90.892,319.184,317.46,0.0
53991.0,STARLINK-5118,PAYLOAD,2022-10-15 22:00:01,15.83923214,0.0001602,53.2172,42.0052,33.9643,79.8509,-0.0025603,-0.00548616,0.0,0 STARLINK-5118,1 53991U 22125AD  22288.91668981 -.00548616  00000-0 -25603-2 0  9999,2 53991  53.2172  42.0052 0001602  33.9643  79.8509 15.83923214  1309,6697.495,90.913,320.433,318.2870000000001,0.0
53991.0,STARLINK-5118,PAYLOAD,2022-10-16 12:00:00,15.83255372,0.0001757,53.2175,39.0737,32.9762,168.2403,-0.0026122,-0.00542593,0.0,0 STARLINK-5118,1 53991U 22125AD  22289.50001157 -.00542593  00000-0 -26122-2 0  9996,2 53991  53.2175  39.0737 0001757  32.9762 168.2403 15.83255372  2052,6699.379,90.952,322.421,320.067,0.0
53991.0,STARLINK-5118,PAYLOAD,2022-10-16 14:00:01,15.83163297,0.0001709,53.2173,38.6557,31.7411,284.7125,-0.0026518,-0.0054806,0.0,0 STARLINK-5118,1 53991U 22125AD  22289.58334491 -.00548060  00000-0 -26518-2 0  9998,2 53991  53.2173  38.6557 0001709  31.7411 284.7125 15.83163297  1306,6699.638000000001,90.957,322.648,320.358,0.0
53991.0,STARLINK-5118,PAYLOAD,2022-10-16 22:00:00,15.82783605,0.0001341999999999,53.2173,36.9817,42.0738,15.0478,-0.0026974,-0.00547511,0.0,0 STARLINK-5118,1 53991U 22125AD  22289.91667824 -.00547511  00000-0 -26974-2 0  9990,2 53991  53.2173  36.9817 0001342  42.0738  15.0478 15.82783605  1302,6700.71,90.979,323.474,321.676,0.0
53991.0,STARLINK-5118,PAYLOAD,2022-10-17 12:00:00,15.82116209,0.0001721999999999,53.2175,34.0553,33.0389,109.1543,-0.0027574,-0.00542724,0.0,0 STARLINK-5118,1 53991U 22125AD  22290.50001157 -.00542724  00000-0 -27574-2 0  9996,2 53991  53.2175  34.0553 0001722  33.0389 109.1543 15.82116209  2213,6702.594,91.017,325.613,323.305,0.0
53991.0,STARLINK-5118,PAYLOAD,2022-10-17 14:00:01,15.82023376,0.0001684,53.2174,33.638000000000005,35.0065,222.0816,-0.0027925,-0.00546966,0.0,0 STARLINK-5118,1 53991U 22125AD  22290.58334491 -.00546966  00000-0 -27925-2 0  9996,2 53991  53.2174  33.6380 0001684  35.0065 222.0816 15.82023376  1304,6702.856,91.023,325.85,323.593,0.0
53991.0,STARLINK-5118,PAYLOAD,2022-10-17 22:00:00,15.81656718,0.0001851999999999,53.2178,31.9661,20.6425,335.7389,-0.0029421,-0.00565284,0.0,0 STARLINK-5118,1 53991U 22125AD  22290.91667824 -.00565284  00000-0 -29421-2 0  9999,2 53991  53.2178  31.9661 0001852  20.6425 335.7389 15.81656718  1306,6703.892,91.044,326.999,324.516,0.0
53991.0,STARLINK-5118,PAYLOAD,2022-10-18 14:00:01,15.80885998,0.000484,53.2175,28.6286,279.5282,274.0866,-0.0029574,-0.00549911,0.0,0 STARLINK-5118,1 53991U 22125AD  22291.58334491 -.00549911  00000-0 -29574-2 0  9992,2 53991  53.2175  28.6286 0004840 279.5282 274.0866 15.80885998  1303,6706.071,91.088,331.182,324.69,0.0
53991.0,STARLINK-5118,PAYLOAD,2022-10-18 20:00:01,15.80600278,0.0001882,53.2172,27.3773,28.021,149.0846,-0.0029917,-0.00548336,0.0,0 STARLINK-5118,1 53991U 22125AD  22291.83334491 -.00548336  00000-0 -29917-2 0  9991,2 53991  53.2172  27.3773 0001882  28.0210 149.0846 15.80600278  2427,6706.879,91.105,330.006,327.482,0.0
53991.0,STARLINK-5118,PAYLOAD,2022-10-18 22:00:00,15.80505594,0.0001771,53.2174,26.9597,29.0778,262.4678,-0.0030071,-0.00548706,0.0,0 STARLINK-5118,1 53991U 22125AD  22291.91667824 -.00548706  00000-0 -30071-2 0  9993,2 53991  53.2174  26.9597 0001771  29.0778 262.4678 15.80505594  1309,6707.147,91.11,330.2,327.824,0.0
53991.0,STARLINK-5118,PAYLOAD,2022-10-19 14:00:01,15.79738378,0.0001610999999999,53.2183,23.6272,38.9401,87.09899999999998,-0.0030403,-0.00536261,0.0,0 STARLINK-5118,1 53991U 22125AD  22292.58334491 -.00536261  00000-0 -30403-2 0  9990,2 53991  53.2183  23.6272 0001611  38.9401  87.0990 15.79738378  1302,6709.318,91.154,332.264,330.102,0.0
53991.0,STARLINK-5118,PAYLOAD,2022-10-19 22:00:00,15.79366661,0.000149,53.2173,21.9615,40.9858,181.6111,-0.0031726,-0.00549297,0.0,0 STARLINK-5118,1 53991U 22125AD  22292.91667824 -.00549297  00000-0 -31726-2 0  9998,2 53991  53.2173  21.9615 0001490  40.9858 181.6111 15.79366661  2597,6710.371,91.176,333.236,331.236,0.0
53991.0,STARLINK-5118,PAYLOAD,2022-10-20 14:00:01,15.78606785,0.0001935,53.2176,18.6351,26.7103,27.6383,-0.0032736999999999,-0.0054771,0.0,0 STARLINK-5118,1 53991U 22125AD  22293.58334491 -.00547710  00000-0 -32737-2 0  9994,2 53991  53.2176  18.6351 0001935  26.7103  27.6383 15.78606785  1300,6712.524,91.22,335.6880000000001,333.09,0.0
53991.0,STARLINK-5118,PAYLOAD,2022-10-20 22:00:00,15.7822701,0.0001894,53.2174,16.9714,27.7532,121.7884,-0.0033345,-0.00548325,0.0,0 STARLINK-5118,1 53991U 22125AD  22293.91667824 -.00548325  00000-0 -33345-2 0  9999,2 53991  53.2174  16.9714 0001894  27.7532 121.7884 15.78227010  1305,6713.601,91.242,336.73800000000006,334.194,0.0
53991.0,STARLINK-5118,PAYLOAD,2022-10-21 04:00:00,15.77940854,0.0001402,53.2173,15.7242,45.44,85.1969,-0.0033646,-0.00546227,0.0,0 STARLINK-5118,1 53991U 22125AD  22294.16667824 -.00546227  00000-0 -33646-2 0  9990,2 53991  53.2173  15.7242 0001402  45.4400  85.1969 15.77940854  2791,6714.413000000001,91.258,337.219,335.336,0.0
53991.0,STARLINK-5118,PAYLOAD,2022-10-21 14:00:01,15.77467591,0.0001821999999999,53.2174,13.651,28.8102,309.7449,-0.0034495,-0.00548168,0.0,0 STARLINK-5118,1 53991U 22125AD  22294.58334491 -.00548168  00000-0 -34495-2 0  9996,2 53991  53.2174  13.6510 0001822  28.8102 309.7449 15.77467591  1303,6715.755999999999,91.286,338.844,336.397,0.0
53991.0,STARLINK-5118,PAYLOAD,2022-10-21 22:00:00,15.77080405,0.0001749,53.2181,11.9901,29.7521,42.6301,-0.0034318,-0.00536696,0.0,0 STARLINK-5118,1 53991U 22125AD  22294.91667824 -.00536696  00000-0 -34318-2 0  9999,2 53991  53.2181  11.9901 0001749  29.7521  42.6301 15.77080405  1304,6716.855,91.308,339.894,337.545,0.0
